[{"OBJECT_NAME":"STARLINK-3792","OBJECT_ID":"2022-045J","EPOCH":"2026-03-09T15:48:18.159264","MEAN_MOTION":15.08817248,"ECCENTRICITY":0.00011863,"INCLINATION":53.217,"RA_OF_ASC_NODE":208.9046,"ARG_OF_PERICENTER":78.0249,"MEAN_ANOMALY":282.0876,"EPHEMERIS_TYPE":0,"CLASSIFICATION_TYPE":"U","NORAD_CAT_ID":52339,"ELEMENT_SET_NO":999,"REV_AT_EPOCH":21564,"BSTAR":-9.7159381e-5,"MEAN_MOTION_DOT":-1.833e-5,"MEAN_MOTION_DDOT":0},{"OBJECT_NAME":"THORAD AGENA D DEB","OBJECT_ID":"1969-082Z","EPOCH":"2026-03-09T07:18:45.871776","MEAN_MOTION":15.11837328,"ECCENTRICITY":0.00204275,"INCLINATION":70.0067,"RA_OF_ASC_NODE":36.7332,"ARG_OF_PERICENTER":221.6463,"MEAN_ANOMALY":138.3149,"EPHEMERIS_TYPE":0,"CLASSIFICATION_TYPE":"U","NORAD_CAT_ID":4157,"ELEMENT_SET_NO":999,"REV_AT_EPOCH":97934,"BSTAR":0.0014373482,"MEAN_MOTION_DOT":0.00024719,"MEAN_MOTION_DDOT":0}]
